{"type": "FeatureCollection", "features": [ {"type": "Feature", "properties": {"norad_id": 66698, "name": "IRIDE FM4", "group": "last-30-days", "lat": 80.57895599290482, "lon": 21.27297359095257, "alt_km": 508.0849408294016, "timestamp": "2025-12-27T17:24:56.104945+00:00", "meta": {"OBJECT_NAME": "IRIDE FM4", "OBJECT_ID": "2025-276AJ", "EPOCH": "2025-12-27T12:00:02.000160", "MEAN_MOTION": 15.17375412, "ECCENTRICITY": 0.0003005, "INCLINATION": 97.4382, "RA_OF_ASC_NODE": 72.9923, "ARG_OF_PERICENTER": 233.3487, "MEAN_ANOMALY": 59.1714, "EPHEMERIS_TYPE": 0, "CLASSIFICATION_TYPE": "U", "NORAD_CAT_ID": 66698, "ELEMENT_SET_NO": 999, "REV_AT_EPOCH": 130, "BSTAR": 0.0021465, "MEAN_MOTION_DOT": 0.00043025, "MEAN_MOTION_DDOT": 0}, "tle": {"line1": "1 66698U 25276AJ  25361.50002315  .00043025  00000+0  21465-2 0  9993", "line2": "2 66698  97.4382  72.9923 0003005 233.3487  59.1714 15.17375412  1307"}}, "geometry": {"type": "Point", "coordinates": [21.27297359095257, 80.57895599290482]}}, {"type": "Feature", "properties": {"norad_id": 66699, "name": "IRIDE FM5", "group": "last-30-days", "lat": 81.64012729580314, "lon": 10.442680741022773, "alt_km": 507.9976680775226, "timestamp": "2025-12-27T17:24:56.104955+00:00", "meta": {"OBJECT_NAME": "IRIDE FM5", "OBJECT_ID": "2025-276AK", "EPOCH": "2025-12-27T10:42:23.516064", "MEAN_MOTION": 15.17444011, "ECCENTRICITY": 0.0003227, "INCLINATION": 97.4398, "RA_OF_ASC_NODE": 72.9455, "ARG_OF_PERICENTER": 234.6976, "MEAN_ANOMALY": 125.3956, "EPHEMERIS_TYPE": 0, "CLASSIFICATION_TYPE": "U", "NORAD_CAT_ID": 66699, "ELEMENT_SET_NO": 999, "REV_AT_EPOCH": 435, "BSTAR": 0.00026197, "MEAN_MOTION_DOT": 5.176e-05, "MEAN_MOTION_DDOT": 0}, "tle": {"line1": "1 66699U 25276AK  25361.44610551  .00005176  00000+0  26197-3 0  9997", "line2": "2 66699  97.4398  72.9455 0003227 234.6976 125.3956 15.17444011  4352"}}, "geometry": {"type": "Point", "coordinates": [10.442680741022773, 81.64012729580314]}}, {"type": "Feature", "properties": {"norad_id": 66700, "name": "IRIDE FM6", "group": "last-30-days", "lat": 7.213571669700203, "lon": -105.78883953489762, "alt_km": 511.7024418443034, "timestamp": "2025-12-27T17:24:56.104967+00:00", "meta": {"OBJECT_NAME": "IRIDE FM6", "OBJECT_ID": "2025-276AL", "EPOCH": "2025-12-27T11:54:45.683712", "MEAN_MOTION": 15.18299143, "ECCENTRICITY": 0.000216, "INCLINATION": 97.4415, "RA_OF_ASC_NODE": 73.0377, "ARG_OF_PERICENTER": 150.0829, "MEAN_ANOMALY": 210.0529, "EPHEMERIS_TYPE": 0, "CLASSIFICATION_TYPE": "U", "NORAD_CAT_ID": 66700, "ELEMENT_SET_NO": 999, "REV_AT_EPOCH": 436, "BSTAR": 0.00029689, "MEAN_MOTION_DOT": 6.022e-05, "MEAN_MOTION_DDOT": 0}, "tle": {"line1": "1 66700U 25276AL  25361.49636208  .00006022  00000+0  29689-3 0  9992", "line2": "2 66700  97.4415  73.0377 0002160 150.0829 210.0529 15.18299143  4367"}}, "geometry": {"type": "Point", "coordinates": [-105.78883953489762, 7.213571669700203]}}, {"type": "Feature", "properties": {"norad_id": 66701, "name": "IRIDE FM7", "group": "last-30-days", "lat": 81.60942443652804, "lon": 10.831910009573148, "alt_km": 507.9516736902233, "timestamp": "2025-12-27T17:24:56.104976+00:00", "meta": {"OBJECT_NAME": "IRIDE FM7", "OBJECT_ID": "2025-276AM", "EPOCH": "2025-12-27T10:42:24.577920", "MEAN_MOTION": 15.17447332, "ECCENTRICITY": 0.0003192, "INCLINATION": 97.4417, "RA_OF_ASC_NODE": 72.9524, "ARG_OF_PERICENTER": 233.8121, "MEAN_ANOMALY": 126.2817, "EPHEMERIS_TYPE": 0, "CLASSIFICATION_TYPE": "U", "NORAD_CAT_ID": 66701, "ELEMENT_SET_NO": 999, "REV_AT_EPOCH": 435, "BSTAR": 0.0002448, "MEAN_MOTION_DOT": 4.833e-05, "MEAN_MOTION_DDOT": 0}, "tle": {"line1": "1 66701U 25276AM  25361.44611780  .00004833  00000+0  24480-3 0  9998", "line2": "2 66701  97.4417  72.9524 0003192 233.8121 126.2817 15.17447332  4354"}}, "geometry": {"type": "Point", "coordinates": [10.831910009573148, 81.60942443652804]}}, {"type": "Feature", "properties": {"norad_id": 66702, "name": "IRIDE FM8", "group": "last-30-days", "lat": 82.0376084195852, "lon": 4.125782033099373, "alt_km": 507.8715981981113, "timestamp": "2025-12-27T17:24:56.104988+00:00", "meta": {"OBJECT_NAME": "IRIDE FM8", "OBJECT_ID": "2025-276AN", "EPOCH": "2025-12-27T10:42:08.362368", "MEAN_MOTION": 15.17458476, "ECCENTRICITY": 0.0002961, "INCLINATION": 97.4391, "RA_OF_ASC_NODE": 72.9437, "ARG_OF_PERICENTER": 240.9209, "MEAN_ANOMALY": 119.1728, "EPHEMERIS_TYPE": 0, "CLASSIFICATION_TYPE": "U", "NORAD_CAT_ID": 66702, "ELEMENT_SET_NO": 999, "REV_AT_EPOCH": 435, "BSTAR": 0.00048639, "MEAN_MOTION_DOT": 9.677e-05, "MEAN_MOTION_DDOT": 0}, "tle": {"line1": "1 66702U 25276AN  25361.44593012  .00009677  00000+0  48639-3 0  9999", "line2": "2 66702  97.4391  72.9437 0002961 240.9209 119.1728 15.17458476  4351"}}, "geometry": {"type": "Point", "coordinates": [4.125782033099373, 82.0376084195852]}}, {"type": "Feature", "properties": {"norad_id": 66703, "name": "PELICAN-6", "group": "last-30-days", "lat": 82.02540814829857, "lon": -37.895245084383895, "alt_km": 506.71566593535863, "timestamp": "2025-12-27T17:24:56.104999+00:00", "meta": {"OBJECT_NAME": "PELICAN-6", "OBJECT_ID": "2025-276AP", "EPOCH": "2025-12-27T12:15:35.030304", "MEAN_MOTION": 15.17372678, "ECCENTRICITY": 0.0001283, "INCLINATION": 97.4401, "RA_OF_ASC_NODE": 73.0122, "ARG_OF_PERICENTER": 210.0365, "MEAN_ANOMALY": 150.0795, "EPHEMERIS_TYPE": 0, "CLASSIFICATION_TYPE": "U", "NORAD_CAT_ID": 66703, "ELEMENT_SET_NO": 999, "REV_AT_EPOCH": 436, "BSTAR": 0.00042562, "MEAN_MOTION_DOT": 8.437e-05, "MEAN_MOTION_DDOT": 0}, "tle": {"line1": "1 66703U 25276AP  25361.51082211  .00008437  00000+0  42562-3 0  9994", "line2": "2 66703  97.4401  73.0122 0001283 210.0365 150.0795 15.17372678  4362"}}, "geometry": {"type": "Point", "coordinates": [-37.895245084383895, 82.02540814829857]}}, {"type": "Feature", "properties": {"norad_id": 66704, "name": "FLOCK 4H-1", "group": "last-30-days", "lat": 17.498177574143547, "lon": -104.39762304997896, "alt_km": 510.3811256648605, "timestamp": "2025-12-27T17:24:56.105011+00:00", "meta": {"OBJECT_NAME": "FLOCK 4H-1", "OBJECT_ID": "2025-276AQ", "EPOCH": "2025-12-27T00:00:02.999808", "MEAN_MOTION": 15.18128362, "ECCENTRICITY": 0.00022108, "INCLINATION": 97.4372, "RA_OF_ASC_NODE": 72.5289, "ARG_OF_PERICENTER": 159.7465, "MEAN_ANOMALY": 359.2775, "EPHEMERIS_TYPE": 0, "CLASSIFICATION_TYPE": "U", "NORAD_CAT_ID": 66704, "ELEMENT_SET_NO": 999, "REV_AT_EPOCH": 244, "BSTAR": 0.0015976865, "MEAN_MOTION_DOT": 0.00032658, "MEAN_MOTION_DDOT": 0}, "tle": {"line1": "1 66704U 25276AQ  25361.00003472  .00032658  00000+0  15977-2 0  9992", "line2": "2 66704  97.4372  72.5289 0002210 159.7465 359.2775 15.18128362  2447"}}, "geometry": {"type": "Point", "coordinates": [-104.39762304997896, 17.498177574143547]}}, {"type": "Feature", "properties": {"norad_id": 66705, "name": "FLOCK 4H-2", "group": "last-30-days", "lat": 14.15480840710142, "lon": -104.86939803686445, "alt_km": 511.5703634302381, "timestamp": "2025-12-27T17:24:56.105021+00:00", "meta": {"OBJECT_NAME": "FLOCK 4H-2", "OBJECT_ID": "2025-276AR", "EPOCH": "2025-12-27T11:56:34.711872", "MEAN_MOTION": 15.18168123, "ECCENTRICITY": 0.0001679, "INCLINATION": 97.437, "RA_OF_ASC_NODE": 73.0186, "ARG_OF_PERICENTER": 126.5934, "MEAN_ANOMALY": 233.5455, "EPHEMERIS_TYPE": 0, "CLASSIFICATION_TYPE": "U", "NORAD_CAT_ID": 66705, "ELEMENT_SET_NO": 999, "REV_AT_EPOCH": 436, "BSTAR": -0.00053703, "MEAN_MOTION_DOT": -0.00011013, "MEAN_MOTION_DDOT": 0}, "tle": {"line1": "1 66705U 25276AR  25361.49762398 -.00011013  00000+0 -53703-3 0  9999", "line2": "2 66705  97.4370  73.0186 0001679 126.5934 233.5455 15.18168123  4360"}}, "geometry": {"type": "Point", "coordinates": [-104.86939803686445, 14.15480840710142]}}, {"type": "Feature", "properties": {"norad_id": 66706, "name": "FLOCK 4H-3", "group": "last-30-days", "lat": 77.9452475466302, "lon": -69.00735328615708, "alt_km": 507.22578608547246, "timestamp": "2025-12-27T17:24:56.105031+00:00", "meta": {"OBJECT_NAME": "FLOCK 4H-3", "OBJECT_ID": "2025-276AS", "EPOCH": "2025-12-27T10:38:54.485088", "MEAN_MOTION": 15.17532129, "ECCENTRICITY": 0.0003136, "INCLINATION": 97.4437, "RA_OF_ASC_NODE": 72.965, "ARG_OF_PERICENTER": 224.7079, "MEAN_ANOMALY": 135.3903, "EPHEMERIS_TYPE": 0, "CLASSIFICATION_TYPE": "U", "NORAD_CAT_ID": 66706, "ELEMENT_SET_NO": 999, "REV_AT_EPOCH": 435, "BSTAR": 0.00030713, "MEAN_MOTION_DOT": 6.096e-05, "MEAN_MOTION_DDOT": 0}, "tle": {"line1": "1 66706U 25276AS  25361.44368617  .00006096  00000+0  30713-3 0  9990", "line2": "2 66706  97.4437  72.9650 0003136 224.7079 135.3903 15.17532129  4356"}}, "geometry": {"type": "Point", "coordinates": [-69.00735328615708, 77.9452475466302]}}, {"type": "Feature", "properties": {"norad_id": 66707, "name": "FLOCK 4H-4", "group": "last-30-days", "lat": 71.79247664149099, "lon": 49.8091752690846, "alt_km": 509.5508185345079, "timestamp": "2025-12-27T17:24:56.105041+00:00", "meta": {"OBJECT_NAME": "FLOCK 4H-4", "OBJECT_ID": "2025-276AT", "EPOCH": "2025-12-27T12:20:41.803008", "MEAN_MOTION": 15.17270724, "ECCENTRICITY": 0.0003753, "INCLINATION": 97.442, "RA_OF_ASC_NODE": 73.0169, "ARG_OF_PERICENTER": 230.4334, "MEAN_ANOMALY": 129.6568, "EPHEMERIS_TYPE": 0, "CLASSIFICATION_TYPE": "U", "NORAD_CAT_ID": 66707, "ELEMENT_SET_NO": 999, "REV_AT_EPOCH": 436, "BSTAR": 0.00051043, "MEAN_MOTION_DOT": 0.00010105, "MEAN_MOTION_DDOT": 0}, "tle": {"line1": "1 66707U 25276AT  25361.51437272  .00010105  00000+0  51043-3 0  9998", "line2": "2 66707  97.4420  73.0169 0003753 230.4334 129.6568 15.17270724  4363"}}, "geometry": {"type": "Point", "coordinates": [49.8091752690846, 71.79247664149099]}}]}